<xml>
<item>
<COMMENT>GENERATED VIA SPACETRACK.ORG API</COMMENT>
<ORIGINATOR>18 SPCS</ORIGINATOR>
<NORAD_CAT_ID>55934</NORAD_CAT_ID>
<OBJECT_NAME>STARLINK-5927</OBJECT_NAME>
<OBJECT_TYPE>PAYLOAD</OBJECT_TYPE>
<CLASSIFICATION_TYPE>U</CLASSIFICATION_TYPE>
<INTLDES>23037W</INTLDES>
<EPOCH>2023-11-01 08:51:42</EPOCH>
<EPOCH_MICROSECONDS>263424</EPOCH_MICROSECONDS>
<MEAN_MOTION>14.98327126</MEAN_MOTION>
<ECCENTRICITY>0.0002491</ECCENTRICITY>
<INCLINATION>70</INCLINATION>
<RA_OF_ASC_NODE>291.0504</RA_OF_ASC_NODE>
<ARG_OF_PERICENTER>272.0605</ARG_OF_PERICENTER>
<MEAN_ANOMALY>88.0269</MEAN_ANOMALY>
<EPHEMERIS_TYPE>0</EPHEMERIS_TYPE>
<ELEMENT_SET_NO>999</ELEMENT_SET_NO>
<REV_AT_EPOCH>3526</REV_AT_EPOCH>
<BSTAR>0.00012978</BSTAR>
<MEAN_MOTION_DOT>0.00001456</MEAN_MOTION_DOT>
<MEAN_MOTION_DDOT>0</MEAN_MOTION_DDOT>
<FILE>4064888</FILE>
<TLE_LINE0>0 STARLINK-5927</TLE_LINE0>
<TLE_LINE1>1 55934U 23037W 23305.36923916 .00001456 00000-0 12978-3 0 9999</TLE_LINE1>
<TLE_LINE2>2 55934 70.0000 291.0504 0002491 272.0605 88.0269 14.98327126 35266</TLE_LINE2>
<OBJECT_ID>2023-037W</OBJECT_ID>
<OBJECT_NUMBER>55934</OBJECT_NUMBER>
<SEMIMAJOR_AXIS>6950.202</SEMIMAJOR_AXIS>
<PERIOD>96.107</PERIOD>
<APOGEE>573.798</APOGEE>
<PERIGEE>570.335</PERIGEE>
<DECAYED>0</DECAYED>
</item>
<item>
<COMMENT>GENERATED VIA SPACETRACK.ORG API</COMMENT>
<ORIGINATOR>18 SPCS</ORIGINATOR>
<NORAD_CAT_ID>55939</NORAD_CAT_ID>
<OBJECT_NAME>STARLINK-5918</OBJECT_NAME>
<OBJECT_TYPE>PAYLOAD</OBJECT_TYPE>
<CLASSIFICATION_TYPE>U</CLASSIFICATION_TYPE>
<INTLDES>23037AB</INTLDES>
<EPOCH>2023-11-01 08:57:28</EPOCH>
<EPOCH_MICROSECONDS>592640</EPOCH_MICROSECONDS>
<MEAN_MOTION>14.98330461</MEAN_MOTION>
<ECCENTRICITY>0.0002812</ECCENTRICITY>
<INCLINATION>70</INCLINATION>
<RA_OF_ASC_NODE>291.0643</RA_OF_ASC_NODE>
<ARG_OF_PERICENTER>267.4379</ARG_OF_PERICENTER>
<MEAN_ANOMALY>92.6458</MEAN_ANOMALY>
<EPHEMERIS_TYPE>0</EPHEMERIS_TYPE>
<ELEMENT_SET_NO>999</ELEMENT_SET_NO>
<REV_AT_EPOCH>3560</REV_AT_EPOCH>
<BSTAR>0.000040503</BSTAR>
<MEAN_MOTION_DOT>0.0000039</MEAN_MOTION_DOT>
<MEAN_MOTION_DDOT>0</MEAN_MOTION_DDOT>
<FILE>4064551</FILE>
<TLE_LINE0>0 STARLINK-5918</TLE_LINE0>
<TLE_LINE1>1 55939U 23037AB 23305.37324760 .00000390 00000-0 40503-4 0 9999</TLE_LINE1>
<TLE_LINE2>2 55939 70.0000 291.0643 0002812 267.4379 92.6458 14.98330461 35603</TLE_LINE2>
<OBJECT_ID>2023-037AB</OBJECT_ID>
<OBJECT_NUMBER>55939</OBJECT_NUMBER>
<SEMIMAJOR_AXIS>6950.191</SEMIMAJOR_AXIS>
<PERIOD>96.107</PERIOD>
<APOGEE>574.011</APOGEE>
<PERIGEE>570.102</PERIGEE>
<DECAYED>0</DECAYED>
</item>
<item>
<COMMENT>GENERATED VIA SPACETRACK.ORG API</COMMENT>
<ORIGINATOR>18 SPCS</ORIGINATOR>
<NORAD_CAT_ID>55939</NORAD_CAT_ID>
<OBJECT_NAME>STARLINK-5918</OBJECT_NAME>
<OBJECT_TYPE>PAYLOAD</OBJECT_TYPE>
<CLASSIFICATION_TYPE>U</CLASSIFICATION_TYPE>
<INTLDES>23037AB</INTLDES>
<EPOCH>2023-11-01 08:57:28</EPOCH>
<EPOCH_MICROSECONDS>592640</EPOCH_MICROSECONDS>
<MEAN_MOTION>14.98330461</MEAN_MOTION>
<ECCENTRICITY>0.0002812</ECCENTRICITY>
<INCLINATION>70</INCLINATION>
<RA_OF_ASC_NODE>291.0643</RA_OF_ASC_NODE>
<ARG_OF_PERICENTER>267.4379</ARG_OF_PERICENTER>
<MEAN_ANOMALY>92.6458</MEAN_ANOMALY>
<EPHEMERIS_TYPE>0</EPHEMERIS_TYPE>
<ELEMENT_SET_NO>999</ELEMENT_SET_NO>
<REV_AT_EPOCH>3526</REV_AT_EPOCH>
<BSTAR>0.000040503</BSTAR>
<MEAN_MOTION_DOT>0.0000039</MEAN_MOTION_DOT>
<MEAN_MOTION_DDOT>0</MEAN_MOTION_DDOT>
<FILE>4064888</FILE>
<TLE_LINE0>0 STARLINK-5918</TLE_LINE0>
<TLE_LINE1>1 55939U 23037AB 23305.37324760 .00000390 00000-0 40503-4 0 9999</TLE_LINE1>
<TLE_LINE2>2 55939 70.0000 291.0643 0002812 267.4379 92.6458 14.98330461 35265</TLE_LINE2>
<OBJECT_ID>2023-037AB</OBJECT_ID>
<OBJECT_NUMBER>55939</OBJECT_NUMBER>
<SEMIMAJOR_AXIS>6950.191</SEMIMAJOR_AXIS>
<PERIOD>96.107</PERIOD>
<APOGEE>574.011</APOGEE>
<PERIGEE>570.102</PERIGEE>
<DECAYED>0</DECAYED>
</item>
<item>
<COMMENT>GENERATED VIA SPACETRACK.ORG API</COMMENT>
<ORIGINATOR>18 SPCS</ORIGINATOR>
<NORAD_CAT_ID>55660</NORAD_CAT_ID>
<OBJECT_NAME>STARLINK-5467</OBJECT_NAME>
<OBJECT_TYPE>PAYLOAD</OBJECT_TYPE>
<CLASSIFICATION_TYPE>U</CLASSIFICATION_TYPE>
<INTLDES>23021AJ</INTLDES>
<EPOCH>2023-11-01 09:07:45</EPOCH>
<EPOCH_MICROSECONDS>7392</EPOCH_MICROSECONDS>
<MEAN_MOTION>14.98331365</MEAN_MOTION>
<ECCENTRICITY>0.0002923</ECCENTRICITY>
<INCLINATION>70</INCLINATION>
<RA_OF_ASC_NODE>171.2713</RA_OF_ASC_NODE>
<ARG_OF_PERICENTER>258.4455</ARG_OF_PERICENTER>
<MEAN_ANOMALY>101.6376</MEAN_ANOMALY>
<EPHEMERIS_TYPE>0</EPHEMERIS_TYPE>
<ELEMENT_SET_NO>999</ELEMENT_SET_NO>
<REV_AT_EPOCH>4056</REV_AT_EPOCH>
<BSTAR>-0.000018281</BSTAR>
<MEAN_MOTION_DOT>-0.00000311</MEAN_MOTION_DOT>
<MEAN_MOTION_DDOT>0</MEAN_MOTION_DDOT>
<FILE>4064888</FILE>
<TLE_LINE0>0 STARLINK-5467</TLE_LINE0>
<TLE_LINE1>1 55660U 23021AJ 23305.38038203 -.00000311 00000-0 -18281-4 0 9991</TLE_LINE1>
<TLE_LINE2>2 55660 70.0000 171.2713 0002923 258.4455 101.6376 14.98331365 40564</TLE_LINE2>
<OBJECT_ID>2023-021AJ</OBJECT_ID>
<OBJECT_NUMBER>55660</OBJECT_NUMBER>
<SEMIMAJOR_AXIS>6950.189</SEMIMAJOR_AXIS>
<PERIOD>96.107</PERIOD>
<APOGEE>574.085</APOGEE>
<PERIGEE>570.022</PERIGEE>
<DECAYED>0</DECAYED>
</item>
<item>
<COMMENT>GENERATED VIA SPACETRACK.ORG API</COMMENT>
<ORIGINATOR>18 SPCS</ORIGINATOR>
<NORAD_CAT_ID>55305</NORAD_CAT_ID>
<OBJECT_NAME>STARLINK-5316</OBJECT_NAME>
<OBJECT_TYPE>PAYLOAD</OBJECT_TYPE>
<CLASSIFICATION_TYPE>U</CLASSIFICATION_TYPE>
<INTLDES>23010AN</INTLDES>
<EPOCH>2023-11-01 09:59:16</EPOCH>
<EPOCH_MICROSECONDS>197216</EPOCH_MICROSECONDS>
<MEAN_MOTION>14.98309559</MEAN_MOTION>
<ECCENTRICITY>0.0002695</ECCENTRICITY>
<INCLINATION>70</INCLINATION>
<RA_OF_ASC_NODE>31.1828</RA_OF_ASC_NODE>
<ARG_OF_PERICENTER>278.3107</ARG_OF_PERICENTER>
<MEAN_ANOMALY>81.7747</MEAN_ANOMALY>
<EPHEMERIS_TYPE>0</EPHEMERIS_TYPE>
<ELEMENT_SET_NO>999</ELEMENT_SET_NO>
<REV_AT_EPOCH>4424</REV_AT_EPOCH>
<BSTAR>-0.000085812</BSTAR>
<MEAN_MOTION_DOT>-0.00001116</MEAN_MOTION_DOT>
<MEAN_MOTION_DDOT>0</MEAN_MOTION_DDOT>
<FILE>4064623</FILE>
<TLE_LINE0>0 STARLINK-5316</TLE_LINE0>
<TLE_LINE1>1 55305U 23010AN 23305.41615969 -.00001116 00000-0 -85812-4 0 9997</TLE_LINE1>
<TLE_LINE2>2 55305 70.0000 31.1828 0002695 278.3107 81.7747 14.98309559 44241</TLE_LINE2>
<OBJECT_ID>2023-010AN</OBJECT_ID>
<OBJECT_NUMBER>55305</OBJECT_NUMBER>
<SEMIMAJOR_AXIS>6950.256</SEMIMAJOR_AXIS>
<PERIOD>96.108</PERIOD>
<APOGEE>573.994</APOGEE>
<PERIGEE>570.248</PERIGEE>
<DECAYED>0</DECAYED>
</item>
<item>
<COMMENT>GENERATED VIA SPACETRACK.ORG API</COMMENT>
<ORIGINATOR>18 SPCS</ORIGINATOR>
<NORAD_CAT_ID>55923</NORAD_CAT_ID>
<OBJECT_NAME>STARLINK-5854</OBJECT_NAME>
<OBJECT_TYPE>PAYLOAD</OBJECT_TYPE>
<CLASSIFICATION_TYPE>U</CLASSIFICATION_TYPE>
<INTLDES>23037K</INTLDES>
<EPOCH>2023-11-01 11:09:59</EPOCH>
<EPOCH_MICROSECONDS>657184</EPOCH_MICROSECONDS>
<MEAN_MOTION>14.98319502</MEAN_MOTION>
<ECCENTRICITY>0.0002196</ECCENTRICITY>
<INCLINATION>70</INCLINATION>
<RA_OF_ASC_NODE>310.8677</RA_OF_ASC_NODE>
<ARG_OF_PERICENTER>262.9722</ARG_OF_PERICENTER>
<MEAN_ANOMALY>97.1188</MEAN_ANOMALY>
<EPHEMERIS_TYPE>0</EPHEMERIS_TYPE>
<ELEMENT_SET_NO>999</ELEMENT_SET_NO>
<REV_AT_EPOCH>3512</REV_AT_EPOCH>
<BSTAR>-0.000074427</BSTAR>
<MEAN_MOTION_DOT>-0.00000981</MEAN_MOTION_DOT>
<MEAN_MOTION_DDOT>0</MEAN_MOTION_DDOT>
<FILE>4064373</FILE>
<TLE_LINE0>0 STARLINK-5854</TLE_LINE0>
<TLE_LINE1>1 55923U 23037K 23305.46527381 -.00000981 00000-0 -74427-4 0 9996</TLE_LINE1>
<TLE_LINE2>2 55923 70.0000 310.8677 0002196 262.9722 97.1188 14.98319502 35120</TLE_LINE2>
<OBJECT_ID>2023-037K</OBJECT_ID>
<OBJECT_NUMBER>55923</OBJECT_NUMBER>
<SEMIMAJOR_AXIS>6950.225</SEMIMAJOR_AXIS>
<PERIOD>96.108</PERIOD>
<APOGEE>573.617</APOGEE>
<PERIGEE>570.564</PERIGEE>
<DECAYED>0</DECAYED>
</item>
<item>
<COMMENT>GENERATED VIA SPACETRACK.ORG API</COMMENT>
<ORIGINATOR>18 SPCS</ORIGINATOR>
<NORAD_CAT_ID>55923</NORAD_CAT_ID>
<OBJECT_NAME>STARLINK-5854</OBJECT_NAME>
<OBJECT_TYPE>PAYLOAD</OBJECT_TYPE>
<CLASSIFICATION_TYPE>U</CLASSIFICATION_TYPE>
<INTLDES>23037K</INTLDES>
<EPOCH>2023-11-01 11:09:59</EPOCH>
<EPOCH_MICROSECONDS>657184</EPOCH_MICROSECONDS>
<MEAN_MOTION>14.98319502</MEAN_MOTION>
<ECCENTRICITY>0.0002196</ECCENTRICITY>
<INCLINATION>70</INCLINATION>
<RA_OF_ASC_NODE>310.8677</RA_OF_ASC_NODE>
<ARG_OF_PERICENTER>262.9722</ARG_OF_PERICENTER>
<MEAN_ANOMALY>97.1188</MEAN_ANOMALY>
<EPHEMERIS_TYPE>0</EPHEMERIS_TYPE>
<ELEMENT_SET_NO>999</ELEMENT_SET_NO>
<REV_AT_EPOCH>3478</REV_AT_EPOCH>
<BSTAR>-0.000074427</BSTAR>
<MEAN_MOTION_DOT>-0.00000981</MEAN_MOTION_DOT>
<MEAN_MOTION_DDOT>0</MEAN_MOTION_DDOT>
<FILE>4064888</FILE>
<TLE_LINE0>0 STARLINK-5854</TLE_LINE0>
<TLE_LINE1>1 55923U 23037K 23305.46527381 -.00000981 00000-0 -74427-4 0 9996</TLE_LINE1>
<TLE_LINE2>2 55923 70.0000 310.8677 0002196 262.9722 97.1188 14.98319502 34781</TLE_LINE2>
<OBJECT_ID>2023-037K</OBJECT_ID>
<OBJECT_NUMBER>55923</OBJECT_NUMBER>
<SEMIMAJOR_AXIS>6950.225</SEMIMAJOR_AXIS>
<PERIOD>96.108</PERIOD>
<APOGEE>573.617</APOGEE>
<PERIGEE>570.564</PERIGEE>
<DECAYED>0</DECAYED>
</item>

</xml>
